ORBCOMM FM103 [+]       
1 40091U 14040F   23279.55147411  .00001814  00000+0  44635-3 0  9992
2 40091  47.0066  58.6478 0002246 301.8210  58.2456 14.55938902473747
ORBCOMM FM114 [+]       
1 41179U 15081A   23279.51828768  .00002193  00000+0  53164-3 0  9991
2 41179  47.0028 328.1669 0001630 341.7268  18.3557 14.55951828414108
ORBCOMM FM119 [-]       
1 41180U 15081B   23279.21092540  .00001915  00000+0  46921-3 0  9995
2 41180  47.0005 238.8059 0000672  67.3002 292.7954 14.55933720415311
ORBCOMM FM105 [-]       
1 41181U 15081C   23279.44912818  .00000842  00000+0  28953-3 0  9993
2 41181  47.0014 184.9988 0001467  46.2858 313.8143 14.44038741411141
ORBCOMM FM110 [+]       
1 41182U 15081D   23279.42666450  .00002230  00000+0  53976-3 0  9996
2 41182  47.0017 328.0253 0002760 237.0803 122.9817 14.55971978413967
ORBCOMM FM118 [+]       
1 41183U 15081E   23279.54128506  .00002288  00000+0  55264-3 0  9990
2 41183  47.0043 327.7497 0002917 232.2145 127.8475 14.55980633414168
ORBCOMM FM112 [+]       
1 41184U 15081F   23279.60092600  .00001914  00000+0  46882-3 0  9994
2 41184  46.9987 236.2317 0001096  28.9757 331.1189 14.55948689415310
ORBCOMM FM113 [+]       
1 41185U 15081G   23279.57695918  .00001704  00000+0  42149-3 0  9991
2 41185  47.0006 236.5622 0000507  33.0998 326.9918 14.55941337415299
